{"type": "FeatureCollection", "features": [ {"type": "Feature", "properties": {"norad_id": 43437, "name": "SENTINEL-3B", "group": "resource", "lat": -77.12660372259722, "lon": -159.71406314929482, "alt_km": 811.1137565263571, "timestamp": "2025-12-22T20:43:45.500447+00:00", "meta": {"OBJECT_NAME": "SENTINEL-3B", "OBJECT_ID": "2018-039A", "EPOCH": "2025-12-22T02:40:53.006304", "MEAN_MOTION": 14.26737543, "ECCENTRICITY": 0.00016188, "INCLINATION": 98.6254, "RA_OF_ASC_NODE": 61.1622, "ARG_OF_PERICENTER": 92.471, "MEAN_ANOMALY": 267.6656, "EPHEMERIS_TYPE": 0, "CLASSIFICATION_TYPE": "U", "NORAD_CAT_ID": 43437, "ELEMENT_SET_NO": 999, "REV_AT_EPOCH": 39887, "BSTAR": 7.7396733e-05, "MEAN_MOTION_DOT": 1.44e-06, "MEAN_MOTION_DDOT": 0}, "tle": {"line1": "1 43437U 18039A   25356.11172461  .00000144  00000+0  77397-4 0  9991", "line2": "2 43437  98.6254  61.1622 0001618  92.4710 267.6656 14.26737543398879"}}, "geometry": {"type": "Point", "coordinates": [-159.71406314929482, -77.12660372259722]}}, {"type": "Feature", "properties": {"norad_id": 43461, "name": "GAOFEN-5 01", "group": "resource", "lat": 34.62800385005921, "lon": -45.87264664653156, "alt_km": 689.7575434906457, "timestamp": "2025-12-22T20:43:45.500456+00:00", "meta": {"OBJECT_NAME": "GAOFEN-5 01", "OBJECT_ID": "2018-043A", "EPOCH": "2025-12-22T12:20:51.410688", "MEAN_MOTION": 14.60419833, "ECCENTRICITY": 5.083e-05, "INCLINATION": 98.4341, "RA_OF_ASC_NODE": 319.653, "ARG_OF_PERICENTER": 269.1622, "MEAN_ANOMALY": 90.9519, "EPHEMERIS_TYPE": 0, "CLASSIFICATION_TYPE": "U", "NORAD_CAT_ID": 43461, "ELEMENT_SET_NO": 999, "REV_AT_EPOCH": 40590, "BSTAR": 9.4988125e-05, "MEAN_MOTION_DOT": 4.11e-06, "MEAN_MOTION_DDOT": 0}, "tle": {"line1": "1 43461U 18043A   25356.51448392  .00000411  00000+0  94988-4 0  9998", "line2": "2 43461  98.4341 319.6530 0000508 269.1622  90.9519 14.60419833405907"}}, "geometry": {"type": "Point", "coordinates": [-45.87264664653156, 34.62800385005921]}}, {"type": "Feature", "properties": {"norad_id": 43484, "name": "GAOFEN-6", "group": "resource", "lat": -75.83532380193728, "lon": -152.11589050534724, "alt_km": 653.8364159405828, "timestamp": "2025-12-22T20:43:45.500467+00:00", "meta": {"OBJECT_NAME": "GAOFEN-6", "OBJECT_ID": "2018-048A", "EPOCH": "2025-12-22T14:41:04.489728", "MEAN_MOTION": 14.76582788, "ECCENTRICITY": 0.00127451, "INCLINATION": 97.8021, "RA_OF_ASC_NODE": 60.5473, "ARG_OF_PERICENTER": 34.4218, "MEAN_ANOMALY": 325.7816, "EPHEMERIS_TYPE": 0, "CLASSIFICATION_TYPE": "U", "NORAD_CAT_ID": 43484, "ELEMENT_SET_NO": 999, "REV_AT_EPOCH": 40733, "BSTAR": 0.00013981698, "MEAN_MOTION_DOT": 9.27e-06, "MEAN_MOTION_DDOT": 0}, "tle": {"line1": "1 43484U 18048A   25356.61185752  .00000927  00000+0  13982-3 0  9993", "line2": "2 43484  97.8021  60.5473 0012745  34.4218 325.7816 14.76582788407333"}}, "geometry": {"type": "Point", "coordinates": [-152.11589050534724, -75.83532380193728]}}, {"type": "Feature", "properties": {"norad_id": 43585, "name": "GAOFEN-11 01", "group": "resource", "lat": -13.03656097609429, "lon": -121.95177830341449, "alt_km": 421.8792509445884, "timestamp": "2025-12-22T20:43:45.500477+00:00", "meta": {"OBJECT_NAME": "GAOFEN-11 01", "OBJECT_ID": "2018-063A", "EPOCH": "2025-12-22T13:41:55.798944", "MEAN_MOTION": 15.49490986, "ECCENTRICITY": 0.00039118, "INCLINATION": 97.155, "RA_OF_ASC_NODE": 59.4244, "ARG_OF_PERICENTER": 262.9764, "MEAN_ANOMALY": 97.1043, "EPHEMERIS_TYPE": 0, "CLASSIFICATION_TYPE": "U", "NORAD_CAT_ID": 43585, "ELEMENT_SET_NO": 999, "REV_AT_EPOCH": 41294, "BSTAR": 0.00038373063, "MEAN_MOTION_DOT": 0.00021064, "MEAN_MOTION_DDOT": 0}, "tle": {"line1": "1 43585U 18063A   25356.57078471  .00021064  00000+0  38373-3 0  9992", "line2": "2 43585  97.1550  59.4244 0003911 262.9764  97.1043 15.49490986412941"}}, "geometry": {"type": "Point", "coordinates": [-121.95177830341449, -13.03656097609429]}}, {"type": "Feature", "properties": {"norad_id": 43613, "name": "ICESAT-2", "group": "resource", "lat": -59.21218654867583, "lon": 60.10014137244981, "alt_km": 489.2646746271812, "timestamp": "2025-12-22T20:43:45.500487+00:00", "meta": {"OBJECT_NAME": "ICESAT-2", "OBJECT_ID": "2018-070A", "EPOCH": "2025-12-22T11:49:42.696192", "MEAN_MOTION": 15.28279321, "ECCENTRICITY": 0.00030811, "INCLINATION": 92.0042, "RA_OF_ASC_NODE": 243.3695, "ARG_OF_PERICENTER": 120.0223, "MEAN_ANOMALY": 240.1332, "EPHEMERIS_TYPE": 0, "CLASSIFICATION_TYPE": "U", "NORAD_CAT_ID": 43613, "ELEMENT_SET_NO": 999, "REV_AT_EPOCH": 40547, "BSTAR": 0.00051409572, "MEAN_MOTION_DOT": 0.00014166, "MEAN_MOTION_DDOT": 0}, "tle": {"line1": "1 43613U 18070A   25356.49285528  .00014166  00000+0  51410-3 0  9998", "line2": "2 43613  92.0042 243.3695 0003081 120.0223 240.1332 15.28279321405475"}}, "geometry": {"type": "Point", "coordinates": [60.10014137244981, -59.21218654867583]}}, {"type": "Feature", "properties": {"norad_id": 43719, "name": "HYSIS", "group": "resource", "lat": 9.328748096726704, "lon": 58.466831489143296, "alt_km": 634.7507499095382, "timestamp": "2025-12-22T20:43:45.500497+00:00", "meta": {"OBJECT_NAME": "HYSIS", "OBJECT_ID": "2018-096A", "EPOCH": "2025-12-22T14:11:26.013120", "MEAN_MOTION": 14.78668616, "ECCENTRICITY": 9.512e-05, "INCLINATION": 98.0087, "RA_OF_ASC_NODE": 59.521, "ARG_OF_PERICENTER": 52.0147, "MEAN_ANOMALY": 308.115, "EPHEMERIS_TYPE": 0, "CLASSIFICATION_TYPE": "U", "NORAD_CAT_ID": 43719, "ELEMENT_SET_NO": 999, "REV_AT_EPOCH": 38132, "BSTAR": 0.00012146948, "MEAN_MOTION_DOT": 8.38e-06, "MEAN_MOTION_DDOT": 0}, "tle": {"line1": "1 43719U 18096A   25356.59127330  .00000838  00000+0  12147-3 0  9995", "line2": "2 43719  98.0087  59.5210 0000951  52.0147 308.1150 14.78668616381322"}}, "geometry": {"type": "Point", "coordinates": [58.466831489143296, 9.328748096726704]}}, {"type": "Feature", "properties": {"norad_id": 43783, "name": "KAZSTSAT", "group": "resource", "lat": -78.55560951390937, "lon": 71.89622000973327, "alt_km": 572.0005651270903, "timestamp": "2025-12-22T20:43:45.500507+00:00", "meta": {"OBJECT_NAME": "KAZSTSAT", "OBJECT_ID": "2018-099AB", "EPOCH": "2025-12-22T08:16:39.683136", "MEAN_MOTION": 14.99367926, "ECCENTRICITY": 0.00060889, "INCLINATION": 97.4522, "RA_OF_ASC_NODE": 31.1161, "ARG_OF_PERICENTER": 287.0325, "MEAN_ANOMALY": 73.0232, "EPHEMERIS_TYPE": 0, "CLASSIFICATION_TYPE": "U", "NORAD_CAT_ID": 43783, "ELEMENT_SET_NO": 999, "REV_AT_EPOCH": 38480, "BSTAR": 4.5132456e-05, "MEAN_MOTION_DOT": 4.96e-06, "MEAN_MOTION_DDOT": 0}, "tle": {"line1": "1 43783U 18099AB  25356.34490374  .00000496  00000+0  45132-4 0  9994", "line2": "2 43783  97.4522  31.1161 0006088 287.0325  73.0232 14.99367926384804"}}, "geometry": {"type": "Point", "coordinates": [71.89622000973327, -78.55560951390937]}}, {"type": "Feature", "properties": {"norad_id": 43831, "name": "SAUDISAT 5A", "group": "resource", "lat": -30.355688249591516, "lon": -127.46628839644539, "alt_km": 502.02037823515366, "timestamp": "2025-12-22T20:43:45.500517+00:00", "meta": {"OBJECT_NAME": "SAUDISAT 5A", "OBJECT_ID": "2018-102A", "EPOCH": "2025-12-22T13:30:50.429088", "MEAN_MOTION": 15.25770191, "ECCENTRICITY": 0.00112606, "INCLINATION": 97.3336, "RA_OF_ASC_NODE": 56.5646, "ARG_OF_PERICENTER": 45.8661, "MEAN_ANOMALY": 314.3502, "EPHEMERIS_TYPE": 0, "CLASSIFICATION_TYPE": "U", "NORAD_CAT_ID": 43831, "ELEMENT_SET_NO": 999, "REV_AT_EPOCH": 38872, "BSTAR": 0.00025326402, "MEAN_MOTION_DOT": 6.407e-05, "MEAN_MOTION_DDOT": 0}, "tle": {"line1": "1 43831U 18102A   25356.56308367  .00006407  00000+0  25326-3 0  9997", "line2": "2 43831  97.3336  56.5646 0011260  45.8661 314.3502 15.25770191388728"}}, "geometry": {"type": "Point", "coordinates": [-127.46628839644539, -30.355688249591516]}}, {"type": "Feature", "properties": {"norad_id": 43833, "name": "SAUDISAT 5B", "group": "resource", "lat": -80.91456518688877, "lon": 113.36532505420487, "alt_km": 500.2412204187822, "timestamp": "2025-12-22T20:43:45.500527+00:00", "meta": {"OBJECT_NAME": "SAUDISAT 5B", "OBJECT_ID": "2018-102C", "EPOCH": "2025-12-22T14:48:18.935712", "MEAN_MOTION": 15.26118287, "ECCENTRICITY": 0.00119928, "INCLINATION": 97.3432, "RA_OF_ASC_NODE": 59.3737, "ARG_OF_PERICENTER": 47.7504, "MEAN_ANOMALY": 312.475, "EPHEMERIS_TYPE": 0, "CLASSIFICATION_TYPE": "U", "NORAD_CAT_ID": 43833, "ELEMENT_SET_NO": 999, "REV_AT_EPOCH": 38884, "BSTAR": 0.00023597829, "MEAN_MOTION_DOT": 6.029e-05, "MEAN_MOTION_DDOT": 0}, "tle": {"line1": "1 43833U 18102C   25356.61688583  .00006029  00000+0  23598-3 0  9995", "line2": "2 43833  97.3432  59.3737 0011992  47.7504 312.4750 15.26118287388848"}}, "geometry": {"type": "Point", "coordinates": [113.36532505420487, -80.91456518688877]}}, {"type": "Feature", "properties": {"norad_id": 44622, "name": "GAOFEN-10R", "group": "resource", "lat": 80.57803826525863, "lon": -113.86894072885089, "alt_km": 611.5255389994591, "timestamp": "2025-12-22T20:43:45.500537+00:00", "meta": {"OBJECT_NAME": "GAOFEN-10R", "OBJECT_ID": "2019-066A", "EPOCH": "2025-12-22T13:52:10.216992", "MEAN_MOTION": 14.82823334, "ECCENTRICITY": 0.00071958, "INCLINATION": 98.0291, "RA_OF_ASC_NODE": 304.1231, "ARG_OF_PERICENTER": 13.0678, "MEAN_ANOMALY": 347.072, "EPHEMERIS_TYPE": 0, "CLASSIFICATION_TYPE": "U", "NORAD_CAT_ID": 44622, "ELEMENT_SET_NO": 999, "REV_AT_EPOCH": 33620, "BSTAR": 0.0001808999, "MEAN_MOTION_DOT": 1.41e-05, "MEAN_MOTION_DDOT": 0}, "tle": {"line1": "1 44622U 19066A   25356.57789603  .00001410  00000+0  18090-3 0  9992", "line2": "2 44622  98.0291 304.1231 0007195  13.0678 347.0720 14.82823334336205"}}, "geometry": {"type": "Point", "coordinates": [-113.86894072885089, 80.57803826525863]}}]}